H1 CPF  1  MCC 2022  9 23 13  7661 larets
H2  0304206 5557    27944 2022 09 22 23 45 00 2022 09 27 23 57 00   180 1 1  0 0 0
H9
10 0 59849 22140.000000 0      3665198.480     -5505094.778     -2465162.348
10 0 59849 22320.000000 0      3606273.442     -5951792.494     -1174087.362
10 0 59849 22500.000000 0      3406888.937     -6177864.875       160145.449
10 0 59849 22680.000000 0      3080215.704     -6171447.381      1488483.182
10 0 59849 22860.000000 0      2644328.927     -5929680.314      2762073.934
10 0 59849 23040.000000 0      2121288.111     -5458919.951      3934131.370
10 0 59849 23220.000000 0      1536058.195     -4774555.555      4961697.180
10 0 59849 23400.000000 0       915336.086     -3900451.472      5807232.105
10 0 59849 23580.000000 0       286340.729     -2868043.958      6439975.262
10 0 59849 23760.000000 0      -324374.255     -1715143.045      6837017.897
10 0 59849 23940.000000 0      -892028.278      -484508.004      6984075.670
10 0 59849 24120.000000 0     -1394604.494       777754.713      6875957.432
10 0 59849 24300.000000 0     -1813691.735      2023918.767      6516719.467
10 0 59849 24480.000000 0     -2135150.875      3206430.954      5919508.181
10 0 59849 24660.000000 0     -2349586.879      4279716.349      5106098.462
10 0 59849 24840.000000 0     -2452613.940      5201939.710      4106136.969
10 0 59849 25020.000000 0     -2444904.873      5936661.817      2956098.667
10 0 59849 25200.000000 0     -2332020.024      6454316.982      1697978.661
10 0 59849 25380.000000 0     -2124021.637      6733442.973       377762.661
10 0 59849 25560.000000 0     -1834889.376      6761603.123      -956269.742
10 0 59849 25740.000000 0     -1481766.009      6535950.096     -2255346.016
10 0 59849 25920.000000 0     -1084067.329      6063384.419     -3472027.456
10 0 59849 26100.000000 0      -662509.398      5360307.371     -4561958.684
10 0 59849 26280.000000 0      -238106.663      4452002.008     -5485479.866
10 0 59849 26460.000000 0       168813.680      3371672.548     -6209044.822
10 0 59849 26640.000000 0       539536.313      2159187.426     -6706398.637
10 0 59849 26820.000000 0       857778.640       859585.864     -6959479.142
10 0 59849 27000.000000 0      1110378.470      -478589.776     -6959033.076
10 0 59849 27180.000000 0      1287824.921     -1805086.081     -6704937.153
10 0 59849 27360.000000 0      1384615.719     -3069795.696     -6206218.196
10 0 59849 27540.000000 0      1399433.066     -4224630.541     -5480780.864
10 0 59849 27720.000000 0      1335128.058     -5225364.102     -4554828.883
10 0 59849 27900.000000 0      1198513.921     -6033365.539     -3461981.032
10 0 59849 28080.000000 0       999970.352     -6617161.228     -2242098.567
10 0 59849 28260.000000 0       752875.086     -6953745.318      -939847.514
10 0 59849 28440.000000 0       472886.096     -7029566.130       396957.649
10 0 59849 28620.000000 0       177108.603     -6841124.799      1719159.725
10 0 59849 28800.000000 0      -116807.770     -6395151.619      2978132.794
10 0 59849 28980.000000 0      -391593.080     -5708340.841      4127639.207
10 0 59849 29160.000000 0      -631252.281     -4806659.295      5125569.256
10 0 59849 29340.000000 0      -821883.042     -3724285.689      5935492.447
10 0 59849 29520.000000 0      -952375.384     -2502235.112      6527968.428
10 0 59849 29700.000000 0     -1014962.585     -1186739.201      6881568.347
10 0 59849 29880.000000 0     -1005603.314       172533.667      6983593.583
10 0 59849 30060.000000 0      -924184.996      1524361.858      6830488.786
10 0 59849 30240.000000 0      -774537.014      2817893.183      6427941.001
10 0 59849 30420.000000 0      -564255.753      4004545.196      5790668.330
10 0 59849 30600.000000 0      -304350.944      5039825.489      4941904.217
10 0 59849 30780.000000 0        -8724.686      5885014.637      3912586.723
10 0 59849 30960.000000 0       306497.456      6508646.971      2740265.711
10 0 59849 31140.000000 0       623754.783      6887737.133      1467760.326
10 0 59849 31320.000000 0       924929.568      7008680.365       141586.283
10 0 59849 31500.000000 0      1192267.657      6867770.044     -1189767.551
10 0 59849 31680.000000 0      1409292.177      6471312.790     -2477644.500
10 0 59849 31860.000000 0      1561661.967      5835336.334     -3675028.347
10 0 59849 32040.000000 0      1637934.699      4984905.355     -4738279.259
10 0 59849 32220.000000 0      1630196.844      3953080.187     -5628721.650
10 0 59849 32400.000000 0      1534529.600      2779580.609     -6314021.406
10 0 59849 32580.000000 0      1351291.349      1509222.135     -6769314.212
10 0 59849 32760.000000 0      1085207.789       190195.193     -6978056.503
10 0 59849 32940.000000 0       745268.074     -1127749.757     -6932590.906
10 0 59849 33120.000000 0       344427.346     -2395153.741     -6634412.670
10 0 59849 33300.000000 0      -100872.648     -3564676.944     -6094141.073
10 0 59849 33480.000000 0      -571355.843     -4592862.552     -5331193.408
10 0 59849 33660.000000 0     -1045715.728     -5441775.206     -4373150.932
10 0 59849 33840.000000 0     -1501546.542     -6080456.391     -3254825.313
10 0 59849 34020.000000 0     -1916365.851     -6486131.066     -2017035.942
10 0 59849 34200.000000 0     -2268681.310     -6645104.023      -705131.251
10 0 59849 34380.000000 0     -2539048.219     -6553292.246       632699.754
10 0 59849 34560.000000 0     -2711060.789     -6216350.402      1947254.488
10 0 59849 34740.000000 0     -2772220.860     -5649377.235      3190195.309
10 0 59849 34920.000000 0     -2714634.398     -4876218.475      4315888.584
10 0 59849 35100.000000 0     -2535499.667     -3928410.671      5283116.496
10 0 59849 35280.000000 0     -2237368.279     -2843828.410      6056591.980
10 0 59849 35460.000000 0     -1828166.012     -1665107.124      6608219.580
10 0 59849 35640.000000 0     -1320977.791      -437925.399      6918068.889
10 0 59849 35820.000000 0      -733613.353       790786.616      6975039.084
10 0 59849 36000.000000 0       -87973.449      1974638.350      6777211.504
10 0 59849 36180.000000 0       590769.013      3069518.567      6331894.684
10 0 59849 36360.000000 0      1275144.548      4035227.399      5655357.856
10 0 59849 36540.000000 0      1936485.316      4836952.698      4772263.169
10 0 59849 36720.000000 0      2546111.821      5446543.823      3714803.548
10 0 59849 36900.000000 0      3076563.491      5843531.292      2521564.975
10 0 59849 37080.000000 0      3502822.176      6015857.683      1236137.340
10 0 59849 37260.000000 0      3803465.098      5960265.808       -94488.695
10 0 59849 37440.000000 0      3961688.632      5682324.695     -1421664.054
10 0 59849 37620.000000 0      3966153.070      5196091.480     -2696892.208
10 0 59849 37800.000000 0      3811602.425      4523427.625     -3873631.780
10 0 59849 37980.000000 0      3499225.277      3693003.850     -4909010.681
10 0 59849 38160.000000 0      3036745.317      2739053.410     -5765378.697
10 0 59849 38340.000000 0      2438241.098      1699936.310     -6411645.732
10 0 59849 38520.000000 0      1723706.743       616583.340     -6824362.153
10 0 59849 38700.000000 0       918378.348      -469110.558     -6988518.488
10 0 59849 38880.000000 0        51847.933     -1515887.660     -6898060.202
10 0 59849 39060.000000 0      -843008.333     -2484672.439     -6556102.272
10 0 59849 39240.000000 0     -1731254.230     -3340014.523     -5974849.765
10 0 59849 39420.000000 0     -2577237.945     -4051391.734     -5175214.581
10 0 59849 39600.000000 0     -3346015.636     -4594329.235     -4186131.849
10 0 59849 39780.000000 0     -4004807.278     -4951292.981     -3043572.958
10 0 59849 39960.000000 0     -4524417.951     -5112310.100     -1789273.957
10 0 59849 40140.000000 0     -4880558.431     -5075282.147      -469214.710
10 0 59849 40320.000000 0     -5054992.346     -4845967.120       868098.364
10 0 59849 40500.000000 0     -5036443.570     -4437623.487      2173474.822
10 0 59849 40680.000000 0     -4821207.833     -3870326.741      3398920.758
10 0 59849 40860.000000 0     -4413436.084     -3169998.574      4499461.514
10 0 59849 41040.000000 0     -3825078.344     -2367205.363      5434825.268
10 0 59849 41220.000000 0     -3075497.708     -1495795.089      6170912.308
10 0 59849 41400.000000 0     -2190785.921      -591447.795      6681008.204
10 0 59849 41580.000000 0     -1202807.631       309802.156      6946706.448
10 0 59849 41760.000000 0      -148021.569      1173000.727      6958514.155
10 0 59849 41940.000000 0       933871.112      1965617.608      6716150.938
10 0 59849 42120.000000 0      2001415.405      2658761.376      6228537.002
10 0 59849 42300.000000 0      3012979.093      3228223.975      5513473.014
10 0 59849 42480.000000 0      3928370.811      3655328.354      4597022.196
10 0 59849 42660.000000 0      4710441.471      3927549.546      3512596.722
10 0 59849 42840.000000 0      5326611.858      4038887.750      2299775.279
10 0 59849 43020.000000 0      5750256.765      3989970.625      1002869.016
10 0 59849 43200.000000 0      5961873.212      3787876.584      -330706.602
10 0 59849 43380.000000 0      5949971.905      3445685.208     -1652194.791
10 0 59849 43560.000000 0      5711642.305      2981775.805     -2913314.331
10 0 59849 43740.000000 0      5252764.694      2418913.785     -4068050.045
10 0 59849 43920.000000 0      4587864.213      1783172.717     -5074344.082
10 0 59849 44100.000000 0      3739611.793      1102745.044     -5895616.007
10 0 59849 44280.000000 0      2738008.974       406707.335     -6502054.391
10 0 59849 44460.000000 0      1619296.371      -276204.240     -6871649.716
10 0 59849 44640.000000 0       424635.602      -918759.782     -6990946.082
10 0 59849 44820.000000 0      -801393.643     -1496303.412     -6855503.307
10 0 59849 45000.000000 0     -2012432.086     -1987685.668     -6470060.222
99
